CCSDS_OMM_VERS = 2.0
CREATION_DATE  = 
ORIGINATOR     = 

OBJECT_NAME    = SL-16 R/B
OBJECT_ID      = 1994-074B
CENTER_NAME    = EARTH
REF_FRAME      = TEME
TIME_SYSTEM    = UTC
MEAN_ELEMENT_THEORY = SGP/SGP4

EPOCH          = 2026-02-23T12:58:55.952832
MEAN_MOTION    = 14.79389658
ECCENTRICITY   = .000512
INCLINATION    = 97.7130
RA_OF_ASC_NODE = 85.9305
ARG_OF_PERICENTER = 266.8813
MEAN_ANOMALY   = 254.2945

EPHEMERIS_TYPE = 0
CLASSIFICATION_TYPE = U
NORAD_CAT_ID   = 23343
ELEMENT_SET_NO = 999
REV_AT_EPOCH   = 68515
BSTAR          = .71241495E-4
MEAN_MOTION_DOT = .482E-5
MEAN_MOTION_DDOT = 0

CCSDS_OMM_VERS = 2.0
CREATION_DATE  = 
ORIGINATOR     = 

OBJECT_NAME    = SL-16 R/B
OBJECT_ID      = 1994-077B
CENTER_NAME    = EARTH
REF_FRAME      = TEME
TIME_SYSTEM    = UTC
MEAN_ELEMENT_THEORY = SGP/SGP4

EPOCH          = 2026-02-23T06:44:38.170176
MEAN_MOTION    = 14.15564068
ECCENTRICITY   = .00037766
INCLINATION    = 70.9843
RA_OF_ASC_NODE = 22.7997
ARG_OF_PERICENTER = 227.6866
MEAN_ANOMALY   = 132.3938

EPHEMERIS_TYPE = 0
CLASSIFICATION_TYPE = U
NORAD_CAT_ID   = 23405
ELEMENT_SET_NO = 999
REV_AT_EPOCH   = 61419
BSTAR          = .7109701E-5
MEAN_MOTION_DOT = -.34E-6
MEAN_MOTION_DDOT = 0

CCSDS_OMM_VERS = 2.0
CREATION_DATE  = 
ORIGINATOR     = 

OBJECT_NAME    = ARIANE 40+ R/B
OBJECT_ID      = 1995-021B
CENTER_NAME    = EARTH
REF_FRAME      = TEME
TIME_SYSTEM    = UTC
MEAN_ELEMENT_THEORY = SGP/SGP4

EPOCH          = 2026-02-23T10:07:04.004832
MEAN_MOTION    = 14.39761036
ECCENTRICITY   = .00069427
INCLINATION    = 98.4528
RA_OF_ASC_NODE = 126.0953
ARG_OF_PERICENTER = 175.5134
MEAN_ANOMALY   = 195.9310

EPHEMERIS_TYPE = 0
CLASSIFICATION_TYPE = U
NORAD_CAT_ID   = 23561
ELEMENT_SET_NO = 999
REV_AT_EPOCH   = 61719
BSTAR          = .1050595E-3
MEAN_MOTION_DOT = .286E-5
MEAN_MOTION_DDOT = 0

CCSDS_OMM_VERS = 2.0
CREATION_DATE  = 
ORIGINATOR     = 

OBJECT_NAME    = SL-16 R/B
OBJECT_ID      = 1995-058B
CENTER_NAME    = EARTH
REF_FRAME      = TEME
TIME_SYSTEM    = UTC
MEAN_ELEMENT_THEORY = SGP/SGP4

EPOCH          = 2026-02-23T17:04:14.057184
MEAN_MOTION    = 14.15494458
ECCENTRICITY   = .0011238
INCLINATION    = 71.0203
RA_OF_ASC_NODE = 209.6004
ARG_OF_PERICENTER = 150.5114
MEAN_ANOMALY   = 209.6645

EPHEMERIS_TYPE = 0
CLASSIFICATION_TYPE = U
NORAD_CAT_ID   = 23705
ELEMENT_SET_NO = 999
REV_AT_EPOCH   = 56587
BSTAR          = -.9157E-4
MEAN_MOTION_DOT = -.227E-5
MEAN_MOTION_DDOT = 0

CCSDS_OMM_VERS = 2.0
CREATION_DATE  = 
ORIGINATOR     = 

OBJECT_NAME    = SL-16 R/B
OBJECT_ID      = 1996-051B
CENTER_NAME    = EARTH
REF_FRAME      = TEME
TIME_SYSTEM    = UTC
MEAN_ELEMENT_THEORY = SGP/SGP4

EPOCH          = 2026-02-23T17:14:33.962496
MEAN_MOTION    = 14.12411595
ECCENTRICITY   = .0016331
INCLINATION    = 70.7584
RA_OF_ASC_NODE = 204.8090
ARG_OF_PERICENTER = 168.2307
MEAN_ANOMALY   = 191.9198

EPHEMERIS_TYPE = 0
CLASSIFICATION_TYPE = U
NORAD_CAT_ID   = 24298
ELEMENT_SET_NO = 999
REV_AT_EPOCH   = 51967
BSTAR          = .79273E-4
MEAN_MOTION_DOT = .97E-6
MEAN_MOTION_DDOT = 0

CCSDS_OMM_VERS = 2.0
CREATION_DATE  = 
ORIGINATOR     = 

OBJECT_NAME    = ORBVIEW 2 (SEASTAR)
OBJECT_ID      = 1997-037A
CENTER_NAME    = EARTH
REF_FRAME      = TEME
TIME_SYSTEM    = UTC
MEAN_ELEMENT_THEORY = SGP/SGP4

EPOCH          = 2026-02-23T09:47:06.597600
MEAN_MOTION    = 14.35482661
ECCENTRICITY   = .00031978
INCLINATION    = 98.8542
RA_OF_ASC_NODE = 218.3430
ARG_OF_PERICENTER = 100.5611
MEAN_ANOMALY   = 259.5934

EPHEMERIS_TYPE = 0
CLASSIFICATION_TYPE = U
NORAD_CAT_ID   = 24883
ELEMENT_SET_NO = 999
REV_AT_EPOCH   = 50642
BSTAR          = .12031405E-3
MEAN_MOTION_DOT = .299E-5
MEAN_MOTION_DDOT = 0

CCSDS_OMM_VERS = 2.0
CREATION_DATE  = 
ORIGINATOR     = 

OBJECT_NAME    = SL-16 R/B
OBJECT_ID      = 1998-043G
CENTER_NAME    = EARTH
REF_FRAME      = TEME
TIME_SYSTEM    = UTC
MEAN_ELEMENT_THEORY = SGP/SGP4

EPOCH          = 2026-02-23T18:27:28.163808
MEAN_MOTION    = 14.26046180
ECCENTRICITY   = .0010784
INCLINATION    = 98.8230
RA_OF_ASC_NODE = 8.0361
ARG_OF_PERICENTER = 57.9997
MEAN_ANOMALY   = 302.2229

EPHEMERIS_TYPE = 0
CLASSIFICATION_TYPE = U
NORAD_CAT_ID   = 25400
ELEMENT_SET_NO = 999
REV_AT_EPOCH   = 43700
BSTAR          = .48511E-4
MEAN_MOTION_DOT = .71E-6
MEAN_MOTION_DDOT = 0

CCSDS_OMM_VERS = 2.0
CREATION_DATE  = 
ORIGINATOR     = 

OBJECT_NAME    = SL-16 R/B
OBJECT_ID      = 1998-045B
CENTER_NAME    = EARTH
REF_FRAME      = TEME
TIME_SYSTEM    = UTC
MEAN_ELEMENT_THEORY = SGP/SGP4

EPOCH          = 2026-02-23T09:01:20.226720
MEAN_MOTION    = 14.16191374
ECCENTRICITY   = .00059857
INCLINATION    = 71.0102
RA_OF_ASC_NODE = 211.6734
ARG_OF_PERICENTER = 31.6977
MEAN_ANOMALY   = 328.4505

EPHEMERIS_TYPE = 0
CLASSIFICATION_TYPE = U
NORAD_CAT_ID   = 25407
ELEMENT_SET_NO = 999
REV_AT_EPOCH   = 42507
BSTAR          = .5949849E-5
MEAN_MOTION_DOT = -.36E-6
MEAN_MOTION_DDOT = 0

CCSDS_OMM_VERS = 2.0
CREATION_DATE  = 
ORIGINATOR     = 

OBJECT_NAME    = ISS (ZARYA)
OBJECT_ID      = 1998-067A
CENTER_NAME    = EARTH
REF_FRAME      = TEME
TIME_SYSTEM    = UTC
MEAN_ELEMENT_THEORY = SGP/SGP4

EPOCH          = 2026-02-23T13:44:35.993184
MEAN_MOTION    = 15.48241655
ECCENTRICITY   = .0008447
INCLINATION    = 51.6320
RA_OF_ASC_NODE = 142.1393
ARG_OF_PERICENTER = 125.7796
MEAN_ANOMALY   = 234.3978

EPHEMERIS_TYPE = 0
CLASSIFICATION_TYPE = U
NORAD_CAT_ID   = 25544
ELEMENT_SET_NO = 999
REV_AT_EPOCH   = 55414
BSTAR          = .26725E-3
MEAN_MOTION_DOT = .1393E-3
MEAN_MOTION_DDOT = 0

CCSDS_OMM_VERS = 2.0
CREATION_DATE  = 
ORIGINATOR     = 

OBJECT_NAME    = CZ-4B R/B
OBJECT_ID      = 1999-025C
CENTER_NAME    = EARTH
REF_FRAME      = TEME
TIME_SYSTEM    = UTC
MEAN_ELEMENT_THEORY = SGP/SGP4

EPOCH          = 2026-02-23T02:59:21.833664
MEAN_MOTION    = 14.18262208
ECCENTRICITY   = .00375301
INCLINATION    = 98.6659
RA_OF_ASC_NODE = 98.7491
ARG_OF_PERICENTER = 28.4022
MEAN_ANOMALY   = 352.4286

EPHEMERIS_TYPE = 0
CLASSIFICATION_TYPE = U
NORAD_CAT_ID   = 25732
ELEMENT_SET_NO = 999
REV_AT_EPOCH   = 38610
BSTAR          = .34275019E-4
MEAN_MOTION_DOT = .28E-6
MEAN_MOTION_DDOT = 0

CCSDS_OMM_VERS = 2.0
CREATION_DATE  = 
ORIGINATOR     = 

OBJECT_NAME    = OKEAN-O
OBJECT_ID      = 1999-039A
CENTER_NAME    = EARTH
REF_FRAME      = TEME
TIME_SYSTEM    = UTC
MEAN_ELEMENT_THEORY = SGP/SGP4

EPOCH          = 2026-02-23T04:29:04.813728
MEAN_MOTION    = 14.80309880
ECCENTRICITY   = .00016449
INCLINATION    = 97.9476
RA_OF_ASC_NODE = 114.2235
ARG_OF_PERICENTER = 77.0618
MEAN_ANOMALY   = 283.0778

EPHEMERIS_TYPE = 0
CLASSIFICATION_TYPE = U
NORAD_CAT_ID   = 25860
ELEMENT_SET_NO = 999
REV_AT_EPOCH   = 43224
BSTAR          = .95603955E-4
MEAN_MOTION_DOT = .676E-5
MEAN_MOTION_DDOT = 0

CCSDS_OMM_VERS = 2.0
CREATION_DATE  = 
ORIGINATOR     = 

OBJECT_NAME    = SL-16 R/B
OBJECT_ID      = 1999-039B
CENTER_NAME    = EARTH
REF_FRAME      = TEME
TIME_SYSTEM    = UTC
MEAN_ELEMENT_THEORY = SGP/SGP4

EPOCH          = 2026-02-23T14:03:15.376032
MEAN_MOTION    = 14.81709800
ECCENTRICITY   = .0013633
INCLINATION    = 97.9999
RA_OF_ASC_NODE = 113.7012
ARG_OF_PERICENTER = 306.4119
MEAN_ANOMALY   = 53.5835

EPHEMERIS_TYPE = 0
CLASSIFICATION_TYPE = U
NORAD_CAT_ID   = 25861
ELEMENT_SET_NO = 999
REV_AT_EPOCH   = 43477
BSTAR          = .7776E-4
MEAN_MOTION_DOT = .559E-5
MEAN_MOTION_DDOT = 0

CCSDS_OMM_VERS = 2.0
CREATION_DATE  = 
ORIGINATOR     = 

OBJECT_NAME    = DELTA 2 R/B
OBJECT_ID      = 1999-041E
CENTER_NAME    = EARTH
REF_FRAME      = TEME
TIME_SYSTEM    = UTC
MEAN_ELEMENT_THEORY = SGP/SGP4

EPOCH          = 2026-02-23T20:23:13.159104
MEAN_MOTION    = 14.11784076
ECCENTRICITY   = .0502217
INCLINATION    = 51.7660
RA_OF_ASC_NODE = 356.5537
ARG_OF_PERICENTER = 307.5651
MEAN_ANOMALY   = 48.0654

EPHEMERIS_TYPE = 0
CLASSIFICATION_TYPE = U
NORAD_CAT_ID   = 25876
ELEMENT_SET_NO = 999
REV_AT_EPOCH   = 36107
BSTAR          = .31127E-3
MEAN_MOTION_DOT = .1701E-4
MEAN_MOTION_DDOT = 0

CCSDS_OMM_VERS = 2.0
CREATION_DATE  = 
ORIGINATOR     = 

OBJECT_NAME    = HELIOS 1B
OBJECT_ID      = 1999-064A
CENTER_NAME    = EARTH
REF_FRAME      = TEME
TIME_SYSTEM    = UTC
MEAN_ELEMENT_THEORY = SGP/SGP4

EPOCH          = 2026-02-23T18:58:58.453248
MEAN_MOTION    = 14.87634476
ECCENTRICITY   = .0002469
INCLINATION    = 98.1710
RA_OF_ASC_NODE = 316.6250
ARG_OF_PERICENTER = 93.5559
MEAN_ANOMALY   = 266.5938

EPHEMERIS_TYPE = 0
CLASSIFICATION_TYPE = U
NORAD_CAT_ID   = 25977
ELEMENT_SET_NO = 999
REV_AT_EPOCH   = 68319
BSTAR          = .1977E-3
MEAN_MOTION_DOT = .174E-4
MEAN_MOTION_DDOT = 0

CCSDS_OMM_VERS = 2.0
CREATION_DATE  = 
ORIGINATOR     = 

OBJECT_NAME    = TERRA
OBJECT_ID      = 1999-068A
CENTER_NAME    = EARTH
REF_FRAME      = TEME
TIME_SYSTEM    = UTC
MEAN_ELEMENT_THEORY = SGP/SGP4

EPOCH          = 2026-02-23T19:48:34.697376
MEAN_MOTION    = 14.60998184
ECCENTRICITY   = .0001725
INCLINATION    = 97.9624
RA_OF_ASC_NODE = 108.7877
ARG_OF_PERICENTER = 188.4844
MEAN_ANOMALY   = 300.9927

EPHEMERIS_TYPE = 0
CLASSIFICATION_TYPE = U
NORAD_CAT_ID   = 25994
ELEMENT_SET_NO = 999
REV_AT_EPOCH   = 39305
BSTAR          = .96916E-4
MEAN_MOTION_DOT = .431E-5
MEAN_MOTION_DDOT = 0

